[{"OBJECT_NAME":"HONGHU 2","OBJECT_ID":"2023-193C","EPOCH":"2026-03-09T23:21:07.139520","MEAN_MOTION":15.21543878,"ECCENTRICITY":0.00399876,"INCLINATION":97.2779,"RA_OF_ASC_NODE":62.3901,"ARG_OF_PERICENTER":264.1736,"MEAN_ANOMALY":95.4941,"EPHEMERIS_TYPE":0,"CLASSIFICATION_TYPE":"U","NORAD_CAT_ID":58555,"ELEMENT_SET_NO":999,"REV_AT_EPOCH":8691,"BSTAR":0.0061775359,"MEAN_MOTION_DOT":0.00144707,"MEAN_MOTION_DDOT":0},{"OBJECT_NAME":"STARLINK-34215","OBJECT_ID":"2025-119V","EPOCH":"2026-03-09T01:31:34.356576","MEAN_MOTION":15.27603134,"ECCENTRICITY":0.00040757,"INCLINATION":43.0039,"RA_OF_ASC_NODE":310.5789,"ARG_OF_PERICENTER":244.5308,"MEAN_ANOMALY":115.5123,"EPHEMERIS_TYPE":0,"CLASSIFICATION_TYPE":"U","NORAD_CAT_ID":64252,"ELEMENT_SET_NO":999,"REV_AT_EPOCH":4407,"BSTAR":0.0016739165,"MEAN_MOTION_DOT":0.00046129,"MEAN_MOTION_DDOT":0}]
